[{"OBJECT_NAME":"PIESAT B","OBJECT_ID":"2023-047B","EPOCH":"2026-03-09T13:45:37.197216","MEAN_MOTION":15.14300167,"ECCENTRICITY":0.0001556,"INCLINATION":97.5017,"RA_OF_ASC_NODE":257.1462,"ARG_OF_PERICENTER":107.7309,"MEAN_ANOMALY":252.4093,"EPHEMERIS_TYPE":0,"CLASSIFICATION_TYPE":"U","NORAD_CAT_ID":56154,"ELEMENT_SET_NO":999,"REV_AT_EPOCH":16272,"BSTAR":0.00018082,"MEAN_MOTION_DOT":3.244e-5,"MEAN_MOTION_DDOT":0},{"OBJECT_NAME":"STARLINK-30356","OBJECT_ID":"2023-131S","EPOCH":"2026-03-09T22:00:01.999584","MEAN_MOTION":15.14540357,"ECCENTRICITY":0.00012469,"INCLINATION":42.9999,"RA_OF_ASC_NODE":169.9073,"ARG_OF_PERICENTER":308.0493,"MEAN_ANOMALY":135.3712,"EPHEMERIS_TYPE":0,"CLASSIFICATION_TYPE":"U","NORAD_CAT_ID":57748,"ELEMENT_SET_NO":999,"REV_AT_EPOCH":572,"BSTAR":0.002799611,"MEAN_MOTION_DOT":0.00052692,"MEAN_MOTION_DDOT":0}]
